NORAD_CAT_ID,OBJECT_NAME,OBJECT_TYPE,EPOCH,MEAN_MOTION,ECCENTRICITY,INCLINATION,RA_OF_ASC_NODE,ARG_OF_PERICENTER,MEAN_ANOMALY,BSTAR,MEAN_MOTION_DOT,MEAN_MOTION_DDOT,TLE_LINE0,TLE_LINE1,TLE_LINE2,SEMIMAJOR_AXIS,PERIOD,APOGEE,PERIGEE,DECAYED
49426.0,STARLINK-3114,PAYLOAD,2023-10-03 04:54:20,15.08842282,0.0001551,53.2166,257.6843,90.3057,269.8113,0.00018949,2.729e-05,0.0,0 STARLINK-3114,1 49426U 21104U   23276.20440752  .00002729  00000-0  18949-3 0  9991,2 49426  53.2166 257.6843 0001551  90.3057 269.8113 15.08842282105580,6917.873,95.437,540.811,538.665,0.0
49426.0,STARLINK-3114,PAYLOAD,2023-10-03 06:29:43,15.08844465,0.0001583,53.2166,257.387,91.1228,268.9946,0.00021543,3.143e-05,0.0,0 STARLINK-3114,1 49426U 21104U   23276.27064640  .00003143  00000-0  21543-3 0  9991,2 49426  53.2166 257.3870 0001583  91.1228 268.9946 15.08844465104501,6917.867,95.437,540.827,538.637,0.0
49426.0,STARLINK-3114,PAYLOAD,2023-10-03 22:23:35,15.08838065,0.0001659,53.2165,254.4167,88.4488,271.6694,8.4877e-05,1.063e-05,0.0,0 STARLINK-3114,1 49426U 21104U   23276.93305183  .00001063  00000-0  84877-4 0  9993,2 49426  53.2165 254.4167 0001659  88.4488 271.6694 15.08838065104609,6917.886,95.438,540.899,538.604,0.0
49426.0,STARLINK-3114,PAYLOAD,2023-10-04 07:55:54,15.0884229,0.0001738,53.2156,252.6317,87.7233,272.3958,8.0456e-05,9.93e-06,0.0,0 STARLINK-3114,1 49426U 21104U   23277.33049032  .00000993  00000-0  80456-4 0  9996,2 49426  53.2156 252.6317 0001738  87.7233 272.3958 15.08842290104666,6917.873,95.437,540.941,538.536,0.0
49426.0,STARLINK-3114,PAYLOAD,2023-10-04 22:14:22,15.08839038,0.0001758,53.2144,249.9548,88.0404,272.0789,0.00012755,1.742e-05,0.0,0 STARLINK-3114,1 49426U 21104U   23277.92665352  .00001742  00000-0  12755-3 0  9999,2 49426  53.2144 249.9548 0001758  88.0404 272.0789 15.08839038104759,6917.883,95.438,540.964,538.532,0.0
49426.0,STARLINK-3114,PAYLOAD,2023-10-05 04:35:55,15.08847176,0.0001659,53.2142,248.7652,92.4567,267.6615,0.00014193,1.972e-05,0.0,0 STARLINK-3114,1 49426U 21104U   23278.19160917  .00001972  00000-0  14193-3 0  9999,2 49426  53.2142 248.7652 0001659  92.4567 267.6615 15.08847176105884,6917.858,95.437,540.871,538.576,0.0
49426.0,STARLINK-3114,PAYLOAD,2023-10-05 07:46:41,15.08853505,0.0001758,53.2158,248.1678,92.3739,267.7455,0.00025193,3.725e-05,0.0,0 STARLINK-3114,1 49426U 21104U   23278.32408624  .00003725  00000-0  25193-3 0  9994,2 49426  53.2158 248.1678 0001758  92.3739 267.7455 15.08853505104811,6917.839,95.437,540.92,538.488,0.0
49426.0,STARLINK-3114,PAYLOAD,2023-10-05 15:43:37,15.08844633,0.0001648,53.2171,246.6833,85.7081,274.41,0.00017497,2.498e-05,0.0,0 STARLINK-3114,1 49426U 21104U   23278.65529010  .00002498  00000-0  17497-3 0  9997,2 49426  53.2171 246.6833 0001648  85.7081 274.4100 15.08844633104865,6917.866,95.437,540.871,538.591,0.0
49426.0,STARLINK-3114,PAYLOAD,2023-10-06 04:26:42,15.08846255,0.00018,53.2149,244.3058,83.6016,276.5181,0.00018451,2.65e-05,0.0,0 STARLINK-3114,1 49426U 21104U   23279.18520936  .00002650  00000-0  18451-3 0  9995,2 49426  53.2149 244.3058 0001800  83.6016 276.5181 15.08846255106034,6917.861,95.437,540.971,538.481,0.0
49426.0,STARLINK-3114,PAYLOAD,2023-10-06 07:37:27,15.08851583,0.0001502,53.2161,243.7068,107.7956,252.32,0.00017261,2.461e-05,0.0,0 STARLINK-3114,1 49426U 21104U   23279.31768355  .00002461  00000-0  17261-3 0  9997,2 49426  53.2161 243.7068 0001502 107.7956 252.3200 15.08851583104966,6917.845,95.437,540.749,538.671,0.0
49426.0,STARLINK-3114,PAYLOAD,2023-10-07 01:06:42,15.08841596,0.0001686,53.2164,240.4355,102.9616,257.1564,-7.3899e-06,-4.06e-06,0.0,0 STARLINK-3114,1 49426U 21104U   23280.04633067 -.00000406  00000-0 -73899-5 0  9990,2 49426  53.2164 240.4355 0001686 102.9616 257.1564 15.08841596106168,6917.876,95.437,540.907,538.574,0.0
49426.0,STARLINK-3114,PAYLOAD,2023-10-07 07:28:15,15.08843981,0.0001734,53.2173,239.2467,94.8707,265.2483,3.8863e-05,3.31e-06,0.0,0 STARLINK-3114,1 49426U 21104U   23280.31128993  .00000331  00000-0  38863-4 0  9993,2 49426  53.2173 239.2467 0001734  94.8707 265.2483 15.08843981105116,6917.868,95.437,540.933,538.534,0.0
49426.0,STARLINK-3114,PAYLOAD,2023-10-07 21:46:43,15.08846085,8.53e-05,53.2164,236.57,126.4153,233.6918,0.00015699,2.212e-05,0.0,0 STARLINK-3114,1 49426U 21104U   23280.90744327  .00002212  00000-0  15699-3 0  9994,2 49426  53.2164 236.5700 0000853 126.4153 233.6918 15.08846085105204,6917.862,95.437,540.317,539.137,0.0
49426.0,STARLINK-3114,PAYLOAD,2023-10-08 02:32:51,15.08868827,0.0001731,53.2162,235.6818,105.1167,255.0017,0.00056112,8.66e-05,0.0,0 STARLINK-3114,1 49426U 21104U   23281.10615640  .00008660  00000-0  56112-3 0  9990,2 49426  53.2162 235.6818 0001731 105.1167 255.0017 15.08868827106327,6917.792,95.436,540.855,538.46,0.0
49426.0,STARLINK-3114,PAYLOAD,2023-10-08 13:40:34,15.08859183,0.0002536,53.2163,233.5978,76.5776,283.5499,0.00044826,6.857e-05,0.0,0 STARLINK-3114,1 49426U 21104U   23281.56983853  .00006857  00000-0  44826-3 0  9999,2 49426  53.2163 233.5978 0002536  76.5776 283.5499 15.08859183105305,6917.822,95.436,541.441,537.932,0.0
49426.0,STARLINK-3114,PAYLOAD,2023-10-09 02:23:39,15.08835205,0.0001785,53.2165,231.2221,91.9633,268.1563,-0.00044574,-7.374e-05,0.0,0 STARLINK-3114,1 49426U 21104U   23282.09976039 -.00007374  00000-0 -44574-3 0  9993,2 49426  53.2165 231.2221 0001785  91.9633 268.1563 15.08835205106470,6917.895,95.438,540.995,538.525,0.0
49426.0,STARLINK-3114,PAYLOAD,2023-10-09 13:31:21,15.08826663,0.0001605,53.2158,229.1381,90.042,270.0756,0.00036599,5.539e-05,0.0,0 STARLINK-3114,1 49426U 21104U   23282.56344664  .00005539  00000-0  36599-3 0  9995,2 49426  53.2158 229.1381 0001605  90.0420 270.0756 15.08826663105451,6917.921,95.438,540.896,538.676,0.0
49426.0,STARLINK-3114,PAYLOAD,2023-10-10 05:25:13,15.08845386,0.0001841,53.2156,226.1651,89.0295,271.0908,0.0011109,0.00017439,0.0,0 STARLINK-3114,1 49426U 21104U   23283.22585215  .00017439  00000-0  11109-2 0  9999,2 49426  53.2156 226.1651 0001841  89.0295 271.0908 15.08845386106641,6917.864,95.437,541.003,538.455,0.0
49426.0,STARLINK-3114,PAYLOAD,2023-10-10 13:22:09,15.08842054,0.0002042,53.2152,224.6786,80.4101,279.7121,0.0010331,0.00016193,0.0,0 STARLINK-3114,1 49426U 21104U   23283.55705597  .00016193  00000-0  10331-2 0  9994,2 49426  53.2152 224.6786 0002042  80.4101 279.7121 15.08842054105600,6917.874,95.437,541.152,538.326,0.0
49426.0,STARLINK-3114,PAYLOAD,2023-10-11 03:40:38,15.08831876,0.0001618,53.2154,222.003,86.4289,273.6888,0.0016086,0.000254,0.0,0 STARLINK-3114,1 49426U 21104U   23284.15322322  .00025400  00000-0  16086-2 0  9996,2 49426  53.2154 222.0030 0001618  86.4289 273.6888 15.08831876106780,6917.905,95.438,540.89,538.651,0.0
49426.0,STARLINK-3114,PAYLOAD,2023-10-11 13:12:57,15.0886074,0.0001597,53.2153,220.2179,88.9824,271.1351,0.0021524,0.00034153,0.0,0 STARLINK-3114,1 49426U 21104U   23284.55066073  .00034153  00000-0  21524-2 0  9996,2 49426  53.2153 220.2179 0001597  88.9824 271.1351 15.08860740105757,6917.817,95.436,540.787,538.577,0.0
49426.0,STARLINK-3114,PAYLOAD,2023-10-11 19:34:29,15.08884875,0.0001545,53.2154,219.0275,91.1699,268.947,0.0024085,0.00038299,0.0,0 STARLINK-3114,1 49426U 21104U   23284.81561388  .00038299  00000-0  24085-2 0  9994,2 49426  53.2154 219.0275 0001545  91.1699 268.9470 15.08884875106886,6917.743,95.435,540.677,538.539,0.0
49426.0,STARLINK-3114,PAYLOAD,2023-10-12 01:56:01,15.08865701,0.0001281,53.216,217.8384,95.7603,264.3535,0.00094087,0.00014728,0.0,0 STARLINK-3114,1 49426U 21104U   23285.08057203  .00014728  00000-0  94087-3 0  9991,2 49426  53.2160 217.8384 0001281  95.7603 264.3535 15.08865701106926,6917.802,95.436,540.553,538.781,0.0
49426.0,STARLINK-3114,PAYLOAD,2023-10-12 13:03:43,15.08848866,0.0001312,53.2158,215.756,88.2114,271.9028,0.00080067,0.00012481,0.0,0 STARLINK-3114,1 49426U 21104U   23285.54425393  .00012481  00000-0  80067-3 0  9998,2 49426  53.2158 215.7560 0001312  88.2114 271.9028 15.08848866105906,6917.853,95.437,540.626,538.811,0.0
49426.0,STARLINK-3114,PAYLOAD,2023-10-12 22:36:02,15.08865855,0.0001441,53.2165,213.9727,86.3217,273.794,0.0022208,0.00035258,0.0,0 STARLINK-3114,1 49426U 21104U   23285.94169243  .00035258  00000-0  22208-2 0  9990,2 49426  53.2165 213.9727 0001441  86.3217 273.7940 15.08865855105961,6917.801,95.436,540.663,538.67,0.0
49426.0,STARLINK-3114,PAYLOAD,2023-10-13 01:46:48,15.08871756,0.0001432,53.2169,213.3785,80.3874,279.728,0.0021694,0.00034437,0.0,0 STARLINK-3114,1 49426U 21104U   23286.07417027  .00034437  00000-0  21694-2 0  9997,2 49426  53.2169 213.3785 0001432  80.3874 279.7280 15.08871756107070,6917.783,95.436,540.639,538.658,0.0
49426.0,STARLINK-3114,PAYLOAD,2023-10-14 04:48:21,15.088543,0.0001449,53.2161,208.3218,71.5973,288.5177,0.00072446,0.00011265,0.0,0 STARLINK-3114,1 49426U 21104U   23287.20025026  .00011265  00000-0  72446-3 0  9993,2 49426  53.2161 208.3218 0001449  71.5973 288.5177 15.08854300107245,6917.837,95.437,540.704,538.699,0.0
49426.0,STARLINK-3114,PAYLOAD,2023-10-14 19:06:50,15.0881547,0.00018,53.2176,205.6458,105.7773,254.3417,0.0002067,3.001e-05,0.0,0 STARLINK-3114,1 49426U 21104U   23287.79642115  .00003001  00000-0  20670-3 0  9992,2 49426  53.2176 205.6458 0001800 105.7773 254.3417 15.08815470107339,6917.955,95.439,541.066,538.575,0.0
49426.0,STARLINK-3114,PAYLOAD,2023-10-14 22:17:37,15.08813363,0.0001568,53.2177,205.0513,99.489,260.6279,0.0003782,5.732e-05,0.0,0 STARLINK-3114,1 49426U 21104U   23287.92890507  .00005732  00000-0  37820-3 0  9995,2 49426  53.2177 205.0513 0001568  99.4890 260.6279 15.08813363106262,6917.962,95.439,540.912,538.742,0.0
49426.0,STARLINK-3114,PAYLOAD,2023-10-15 11:00:42,15.08826585,0.0001463,53.2175,202.6735,90.764,269.352,0.00027186,4.04e-05,0.0,0 STARLINK-3114,1 49426U 21104U   23288.45882946  .00004040  00000-0  27186-3 0  9997,2 49426  53.2175 202.6735 0001463  90.7640 269.3520 15.08826585106344,6917.921,95.438,540.798,538.774,0.0
